C/2019 LB7 (Kleyna),e,164.2787,4.0042,336.7772,35.03036,0.0047538,0.92877959,10.8548,06/27.0/2025,2000,g 17.0,4.0
# From MPC118095
C/2019 M3 (ATLAS),e,99.6508,155.0508,87.9349,5009,0.0000028,0.99951593,0.0000,12/31.4423/2018,2000,g 12.2,4.0
# From MPEC 2023-JA2
C/2019 M4 (TESS),h,09/09.6094/2019,65.6910,52.6422,260.3414,1.000395,9.191041,2000,5.0,4.0
# From MPEC 2023-C45
C/2019 N1 (ATLAS),e,82.5305,13.5130,193.3443,969.9402,0.0000326,0.99824412,0.0000,11/30.5210/2020,2000,g  7.5,4.0
# From MPEC 2023-CD8
A/2019 N2,e,89.3212,276.2237,347.0683,1135,0.0000258,0.99829055,0.0000,08/22.4369/2019,2000,g 12.5,2.0
# From MPEC 2022-A21
C/2019 NJ3 (Lemmon),h,10/22.2532/2020,99.3359,142.4923,246.8722,1.001440,4.362925,2000,9.0,4.0
# From MPEC 2025-MC0
C/2019 O2 (PANSTARRS),e,93.2998,48.2629,129.5757,58.74507,0.0021890,0.83520379,1.7795,06/27.0/2025,2000,g  5.0,4.0
# From MPC182878
C/2019 O3 (Palomar),h,03/08.4274/2021,89.7963,300.4761,60.1007,1.002732,8.820744,2000,3.5,4.0
# From MPEC 2021-P47
A/2019 O4,e,115.0049,354.9264,61.8246,33.22991,0.0051453,0.89038897,10.0995,06/27.0/2025,2000,g 15.5,2.0
# From MPEC 2024-EF7
C/2019 Q1 (Lemmon),h,07/22.1812/2020,155.7214,42.4669,56.2549,1.002389,5.002790,2000,8.5,4.0
# From MPC117072
A/2019 Q2,e,158.9720,188.1238,176.5089,58.78602,0.0021867,0.97855170,0.0000,07/23.6480/2019,2000,g 18.0,2.0
# From MPC117072
P/2019 S2 (PANSTARRS),e,10.4637,93.1804,216.9332,4.747378,0.0952848,0.20467800,221.3242,06/27.0/2025,2000,g 13.5,4.0
# From MPEC 2022-CN4
P/2019 S3 (PANSTARRS),e,8.6940,150.1408,213.0955,3.414443,0.1562156,0.47075172,332.6362,06/27.0/2025,2000,g 18.3,4.0
# From MPEC 2021-S45
C/2019 S4 (Lemmon),e,92.0958,63.1559,71.3707,248.7983,0.0002511,0.98617699,0.0000,04/09.3757/2020,2000,g 11.0,4.0
# From MPEC 2023-N01
A/2019 T1,e,120.8212,6.9302,90.9831,38.75661,0.0040849,0.88970117,6.6342,06/27.0/2025,2000,g 13.0,2.0
# From MPEC 2023-R20
C/2019 T2 (Lemmon),e,111.3727,155.6547,239.3873,3447,0.0000049,0.99923309,0.0000,04/22.5195/2021,2000,g  9.0,4.0
# From MPEC 2023-UR6
C/2019 T3 (ATLAS),e,121.8741,139.5433,112.4883,4575,0.0000032,0.99869875,0.0000,03/04.7172/2021,2000,g  6.8,4.0
# From MPC182878
C/2019 T4 (ATLAS),e,53.6246,199.9022,351.1089,880.2521,0.0000377,0.99518595,0.0000,06/08.6633/2022,2000,g  5.0,4.0
# From MPEC 2021-P47
P/2019 T5 (ATLAS),e,33.4931,247.6127,189.6237,8.007637,0.0434958,0.80977809,93.7147,06/27.0/2025,2000,g 15.0,4.0
# From MPEC 2021-P47
P/2019 T6 (PANSTARRS),e,18.6987,71.2476,329.0587,5.442833,0.0776187,0.62246540,159.6701,06/27.0/2025,2000,g 15.5,4.0
# From MPC118096
P/2019 U4 (PANSTARRS),e,11.6954,200.0017,181.0819,3.518847,0.1493150,0.47574958,314.3808,06/27.0/2025,2000,g 19.0,4.0
# From MPEC 2025-MC0
C/2019 U5 (PANSTARRS),h,03/29.4506/2023,113.5125,2.6131,181.4501,1.000191,3.624246,2000,4.5,4.0
# From MPEC 2022-H04
C/2019 U6 (Lemmon),e,60.9859,235.7509,329.4310,303.8861,0.0001861,0.99701675,0.0000,06/18.3172/2020,2000,g 10.0,4.0
# From MPEC 2022-N37
C/2019 V1 (Borisov),e,61.9482,83.1481,51.1929,2617,0.0000074,0.99881829,0.0000,07/17.5598/2020,2000,g 11.0,4.0
# From MPEC 2022-L66
P/2019 V2 (Groeller),e,11.8069,189.1383,335.6329,7.494818,0.0480355,0.33186831,82.3217,06/27.0/2025,2000,g 10.0,4.0
# From MPEC 2023-A50
P/2019 W1 (PANSTARRS),e,23.4667,35.3618,18.8885,4.548547,0.1016003,0.26719534,227.3820,06/27.0/2025,2000,g 12.9,4.0
# From MPEC 2021-P47
P/2019 X1 (Pruyne),e,10.2457,43.6771,36.9880,6.179427,0.0641626,0.30383225,138.8679,06/27.0/2025,2000,g 10.4,4.0
# From MPEC 2020-C98
P/2019 X2 (Pan-STARRS),e,15.8946,250.8311,213.5149,3.634104,0.1422683,0.50047119,287.9711,06/27.0/2025,2000,g 18.0,4.0
# From MPC119999
C/2019 Y1 (ATLAS),e,73.2806,31.4782,57.9151,88.17492,0.0011904,0.99062767,0.0000,03/17.1882/2020,2000,g 13.7,4.0
# From MPEC 2024-A43
C/2019 Y4 (ATLAS),e,44.9367,120.7905,177.4102,330.7457,0.0001639,0.99922228,0.0000,05/29.6685/2020,2000,g 11.8,6.0
# From MPEC 2020-L06
C/2019 Y4-A (ATLAS),h,05/29.7219/2020,45.3714,121.1582,177.2424,1.001364,0.255382,2000,11.6,6.0
# From MPEC 2025-CE3
C/2019 Y4-B (ATLAS),e,45.0180,120.8537,177.3693,1361,0.0000196,0.99981130,0.0000,05/29.6770/2020,2000,g 12.1,6.0
# From MPEC 2020-L06
C/2019 Y4-C (ATLAS),h,05/29.6757/2020,45.1552,120.8855,177.2751,1.002093,0.256454,2000,12.7,6.0
# From MPEC 2020-L06
C/2019 Y4-D (ATLAS),e,45.2081,121.2472,177.4181,67.31173,0.0017847,0.99620012,0.0000,05/29.7623/2020,2000,g 12.5,6.0
# From MPEC 2023-A50
C/2019 Y5 (PANSTARRS),e,82.7740,51.7664,303.6642,687.4178,0.0000547,0.99282275,0.0000,08/16.5829/2019,2000,g 11.0,4.0
# From MPEC 2023-A50
A/2020 A1,e,149.0316,119.0648,302.4017,25.46476,0.0076700,0.93435749,15.6143,06/27.0/2025,2000,g 18.0,2.0
# From MPEC 2022-YN2
C/2020 A2 (Iwamoto),e,120.5060,286.1897,68.0145,967.2054,0.0000328,0.99899172,0.0000,01/07.1367/2020,2000,g 13.5,4.0
# From MPEC 2023-A50
C/2020 A3 (ATLAS),e,146.6213,120.7986,268.2367,5127,0.0000027,0.99887796,0.0000,06/26.9008/2019,2000,g  8.0,4.0
# From MPEC 2022-P91
P/2020 A4 (PANSTARRS-Lemmon),e,25.0026,312.2820,144.9029,8.202784,0.0419529,0.65447035,85.6489,06/27.0/2025,2000,g 15.0,4.0
# From MPEC 2020-N08
A/2020 B1,e,18.5403,309.8045,154.8770,52.07941,0.0026224,0.96660494,5.2668,06/27.0/2025,2000,g 21.0,2.0
# From MPEC 2020-HN5
C/2020 B2 (Lemmon),e,55.7549,354.1791,143.6274,67.89013,0.0017620,0.95940405,3.4846,06/27.0/2025,2000,g 10.0,4.0
# From MPEC 2022-N37
C/2020 B3 (Rankin),e,20.7068,185.7477,324.9293,1049,0.0000290,0.99682726,0.0000,10/20.7607/2019,2000,g 13.0,4.0
# From MPEC 2023-KD6
P/2020 B4 (Sheppard),e,11.6031,185.9493,342.0490,7.973278,0.0437773,0.19288109,57.5981,06/27.0/2025,2000,g 10.5,4.0
# From MPC184409
C/2020 F2 (ATLAS),h,07/12.5377/2022,163.5897,250.3009,48.2380,1.002628,8.813540,2000,4.5,4.0
# From MPEC 2021-O56
C/2020 F3 (NEOWISE),e,129.1154,61.0776,37.3495,401.8935,0.0001223,0.99926966,0.0000,07/04.9213/2020,2000,g  7.5,5.2
# From MPEC 2024-UQ8
C/2020 F5 (MASTER),e,52.2318,350.5408,310.6183,164.3347,0.0004679,0.97367458,0.0000,03/16.1983/2021,2000,g  6.5,3.2
# From MPEC 2020-L06
C/2020 F6 (PANSTARRS),e,174.5842,207.8417,344.3363,342.6570,0.0001554,0.98979098,0.0000,04/10.3610/2020,2000,g 14.5,2.8
# From MPEC 2024-A43
C/2020 F7 (Lemmon),e,93.9819,321.8226,227.9826,570.4386,0.0000723,0.99064776,0.0000,11/13.8638/2021,2000,g  7.0,4.0
# From MPEC 2023-J29
C/2020 F8 (SWAN),h,05/25.8474/2020,110.5564,259.8027,68.1103,1.000067,0.432660,2000,10.0,4.0
# From MPEC 2020-L06
P/2020 G1 (Pimentel),e,18.5072,240.0989,207.6474,3.606553,0.1439016,0.86081350,277.0735,06/27.0/2025,2000,g 17.0,4.0
# From MPEC 2022-YB4
C/2020 H2 (Pruyne),e,124.7797,277.6716,26.5855,177.2196,0.0004178,0.99532497,0.0000,04/26.9040/2020,2000,g 14.0,3.2
# From MPEC 2020-HM1
C/2020 H3 (Wierzchos),p,06/05.7162/2020,62.5292,30.4456,2.300288,270.6227,2000,13.5,4.0
# From MPEC 2020-L06
C/2020 H4 (Leonard),e,84.4946,307.4579,117.5760,47.84727,0.0029780,0.98061682,0.0000,08/29.2363/2020,2000,g 15.0,3.2
# From MPC184409
C/2020 H5 (Robinson),e,70.2294,210.6149,326.2659,5939,0.0000022,0.99842827,0.0000,12/09.9608/2020,2000,g  5.0,4.0
# From MPEC 2024-JU4
C/2020 H6 (ATLAS),e,79.9885,213.6926,20.1939,1998,0.0000110,0.99764927,0.0000,09/29.5877/2021,2000,g  8.0,3.2
# From MPEC 2020-KB7
C/2020 H7 (Lemmon),e,135.9235,323.5194,82.6780,1405,0.0000187,0.99685380,0.0000,06/02.9510/2020,2000,g 11.0,4.0
# From MPEC 2021-N06
C/2020 H8 (PANSTARRS),e,99.7030,68.4387,128.8208,590.6899,0.0000687,0.99210496,0.0000,06/04.7878/2020,2000,g 10.5,4.0
# From MPEC 2022-ED3
A/2020 H9,e,137.8738,213.1207,312.6222,341.9238,0.0001559,0.99250686,0.0000,12/21.7884/2019,2000,g 18.0,2.0
# From MPEC 2023-HN7
C/2020 H11 (PANSTARRS-Lemmon),e,151.3737,303.0570,91.3669,34142,0.0000002,0.99977679,0.0000,09/12.5809/2020,2000,g  8.5,4.0
# From MPEC 2023-KD6
C/2020 J1 (SONEAR),e,142.3072,226.5865,341.5814,10309,0.0000009,0.99967550,0.0000,04/18.0476/2021,2000,g  8.5,3.2
# From MPC184409
C/2020 K1 (PANSTARRS),e,89.6714,94.3663,213.9708,2466,0.0000081,0.99875320,0.0000,05/08.7619/2023,2000,g  5.5,4.0
# From MPEC 2021-N06
C/2020 K2 (PANSTARRS),h,08/04.4553/2020,90.9891,288.4335,67.3107,1.001000,8.880286,2000,10.8,4.0
# From MPEC 2020-KF9
C/2020 K3 (Leonard),p,06/01.0032/2020,129.0152,64.4924,1.583069,28.3546,2000,14.5,4.0
# From MPEC 2020-L06
C/2020 K4 (PANSTARRS),e,125.5850,264.2743,308.7856,23.92586,0.0084218,0.92710289,16.3384,06/27.0/2025,2000,g 16.5,4.0
# From MPEC 2021-R75
C/2020 K5 (PANSTARRS),h,06/04.2673/2021,67.0687,86.1418,249.6413,1.000811,1.540646,2000,11.0,4.0
# From MPEC 2023-N01
C/2020 K6 (Rankin),h,09/14.7538/2021,103.6308,291.5991,44.2790,1.002149,5.866142,2000,8.0,4.0
# From MPEC 2023-A50
C/2020 K7 (PANSTARRS),e,32.0444,286.1320,358.0829,94.67006,0.0010700,0.93251867,2.2167,06/27.0/2025,2000,g  8.0,4.0
# From MPEC 2021-P47
C/2020 K8 (Catalina-ATLAS),h,09/15.6978/2020,31.3821,181.3041,260.1583,1.000317,0.471502,2000,15.0,3.2
# From MPEC 2021-BE3
P/2020 K9 (Lemmon-PANSTARRS),e,23.1905,166.3111,197.0905,4.207312,0.1142081,0.32014307,182.3690,06/27.0/2025,2000,g 12.5,4.0
# From MPEC 2023-C45
P/2020 M1 (PANSTARRS),e,8.5345,142.6148,72.4941,5.311902,0.0805061,0.47350995,162.0404,06/27.0/2025,2000,g 14.5,4.0
# From MPEC 2022-H30
C/2020 M3 (ATLAS),e,23.4703,71.1762,328.6680,27.30373,0.0069083,0.95330037,11.7804,06/27.0/2025,2000,g 14.5,4.0
# From MPEC 2023-N01
A/2020 M4,e,160.1027,348.6146,104.4818,25529,0.0000002,0.99976729,0.0000,11/22.8003/2020,2000,g 14.5,2.0
# From MPEC 2024-NE4
P/2020 MK4 (PANSTARRS),e,6.7815,0.6647,93.5735,6.224056,0.0634737,0.01507220,318.0611,06/27.0/2025,2000,g  8.0,4.0
# From MPEC 2023-FK0
C/2020 M5 (ATLAS),h,08/19.7537/2021,93.1740,352.0202,126.2455,1.000123,2.999893,2000,9.0,4.0
# From MPEC 2022-GA9
C/2020 N1 (PANSTARRS),h,03/13.1353/2021,29.7656,279.8572,186.8349,1.000859,1.317587,2000,12.5,4.0
# From MPEC 2021-P47
C/2020 N2 (ATLAS),e,161.0387,257.1795,331.2038,101.3760,0.0009656,0.98240238,0.0000,08/24.3141/2020,2000,g 16.0,3.2
# From MPEC 2024-JU4
